NORAD_CAT_ID,OBJECT_NAME,OBJECT_TYPE,EPOCH,MEAN_MOTION,ECCENTRICITY,INCLINATION,RA_OF_ASC_NODE,ARG_OF_PERICENTER,MEAN_ANOMALY,BSTAR,MEAN_MOTION_DOT,MEAN_MOTION_DDOT,TLE_LINE0,TLE_LINE1,TLE_LINE2,SEMIMAJOR_AXIS,PERIOD,APOGEE,PERIGEE,DECAYED
53905.0,STARLINK-5003,PAYLOAD,2024-05-07 21:20:16,15.08842674,0.0001569,53.2165,85.6769,107.536,252.5804,-0.00014633,-2.616e-05,0.0,0 STARLINK-5003,1 53905U 22119V   24128.88908445 -.00002616  00000-0 -14633-3 0  9997,2 53905  53.2165  85.6769 0001569 107.5360 252.5804 15.08842674 90134,6917.872,95.437,540.823,538.652,0.0
53905.0,STARLINK-5003,PAYLOAD,2024-05-08 06:52:35,15.08843004,0.000157,53.2169,83.8953,95.6598,264.4573,-6.4867e-05,-1.32e-05,0.0,0 STARLINK-5003,1 53905U 22119V   24129.28652520 -.00001320  00000-0 -64867-4 0  9998,2 53905  53.2169  83.8953 0001570  95.6598 264.4573 15.08843004 90611,6917.871,95.437,540.822,538.65,0.0
53905.0,STARLINK-5003,PAYLOAD,2024-05-09 03:32:36,15.08843795,0.0001514,53.2166,80.029,87.5933,272.5232,0.00016226,2.296e-05,0.0,0 STARLINK-5003,1 53905U 22119V   24130.14764668  .00002296  00000-0  16226-3 0  9998,2 53905  53.2166  80.0290 0001514  87.5933 272.5232 15.08843795 90329,6917.869,95.437,540.781,538.686,0.0
53905.0,STARLINK-5003,PAYLOAD,2024-05-09 13:04:55,15.08846457,0.0001179,53.2158,78.2442,88.2048,271.9079,0.00016998,2.419e-05,0.0,0 STARLINK-5003,1 53905U 22119V   24130.54508490  .00002419  00000-0  16998-3 0  9994,2 53905  53.2158  78.2442 0001179  88.2048 271.9079 15.08846457 90803,6917.861,95.437,540.541,538.91,0.0
53905.0,STARLINK-5003,PAYLOAD,2024-05-10 03:23:23,15.08840784,0.0001316,53.2179,75.5716,96.4572,263.657,0.00016144,2.282e-05,0.0,0 STARLINK-5003,1 53905U 22119V   24131.14124985  .00002282  00000-0  16144-3 0  9995,2 53905  53.2179  75.5716 0001316  96.4572 263.6570 15.08840784 90470,6917.878,95.438,540.653,538.833,0.0
53905.0,STARLINK-5003,PAYLOAD,2024-05-11 04:49:31,15.08892912,0.0001358,53.2178,70.8118,104.0328,256.0816,0.00070784,0.00011011,0.0,0 STARLINK-5003,1 53905U 22119V   24132.20105664  .00011011  00000-0  70784-3 0  9996,2 53905  53.2178  70.8118 0001358 104.0328 256.0816 15.08892912 90631,6917.719,95.434,540.523,538.644,0.0
53905.0,STARLINK-5003,PAYLOAD,2024-05-11 12:46:25,15.08906224,0.0001102,53.2172,69.3237,82.7029,277.4088,0.00083119,0.00012989,0.0,0 STARLINK-5003,1 53905U 22119V   24132.53224046  .00012989  00000-0  83119-3 0  9999,2 53905  53.2172  69.3237 0001102  82.7029 277.4088 15.08906224 91100,6917.678,95.433,540.305,538.781,0.0
53905.0,STARLINK-5003,PAYLOAD,2024-05-12 04:40:19,15.08802118,0.000118,53.2169,66.351,76.0994,284.0129,-0.0014971,-0.0002401,0.0,0 STARLINK-5003,1 53905U 22119V   24133.19467161 -.00024010  00000-0 -14971-2 0  9998,2 53905  53.2169  66.3510 0001180  76.0994 284.0129 15.08802118 90780,6917.996,95.44,540.678,539.045,0.0
53905.0,STARLINK-5003,PAYLOAD,2024-05-12 12:37:16,15.0879385,0.0001145,53.2165,64.8649,85.6738,274.4385,-0.0013524,-0.00021719,0.0,0 STARLINK-5003,1 53905U 22119V   24133.52588048 -.00021719  00000-0 -13524-2 0  9999,2 53905  53.2165  64.8649 0001145  85.6738 274.4385 15.08793850 91257,6918.021,95.44,540.679,539.094,0.0
53905.0,STARLINK-5003,PAYLOAD,2024-05-13 02:55:46,15.08775962,0.0001166,53.2163,62.1909,87.9502,272.1624,-0.00030819,-5.181e-05,0.0,0 STARLINK-5003,1 53905U 22119V   24134.12206564 -.00005181  00000-0 -30819-3 0  9998,2 53905  53.2163  62.1909 0001166  87.9502 272.1624 15.08775962 90920,6918.076,95.442,540.748,539.134,0.0
53905.0,STARLINK-5003,PAYLOAD,2024-05-13 12:28:06,15.08797102,0.0001144,53.2181,60.404,95.9161,264.1962,0.00099173,0.00015512,0.0,0 STARLINK-5003,1 53905U 22119V   24134.51951575  .00015512  00000-0  99173-3 0  9995,2 53905  53.2181  60.4040 0001144  95.9161 264.1962 15.08797102 90985,6918.012,95.44,540.668,539.085,0.0
53905.0,STARLINK-5003,PAYLOAD,2024-05-14 04:21:56,15.08848668,0.0001114,53.2165,57.431,85.0074,275.1046,0.001392,0.0002194,0.0,0 STARLINK-5003,1 53905U 22119V   24135.18190940  .00021940  00000-0  13920-2 0  9997,2 53905  53.2165  57.4310 0001114  85.0074 275.1046 15.08848668 91084,6917.854,95.437,540.49,538.948,0.0
53905.0,STARLINK-5003,PAYLOAD,2024-05-14 12:18:52,15.08854621,0.0001126,53.217,55.9418,92.0848,268.0273,0.00075763,0.00011795,0.0,0 STARLINK-5003,1 53905U 22119V   24135.51310565  .00011795  00000-0  75763-3 0  9992,2 53905  53.2170  55.9418 0001126  92.0848 268.0273 15.08854621 91553,6917.836,95.437,540.48,538.922,0.0
53905.0,STARLINK-5003,PAYLOAD,2024-05-14 21:51:11,15.08849292,0.0001687,53.2179,54.1569,101.5054,258.6128,0.00062269,9.638e-05,0.0,0 STARLINK-5003,1 53905U 22119V   24135.91054424  .00009638  00000-0  62269-3 0  9995,2 53905  53.2179  54.1569 0001687 101.5054 258.6128 15.08849292 91616,6917.852,95.437,540.884,538.55,0.0
53905.0,STARLINK-5003,PAYLOAD,2024-05-15 04:12:43,15.08847352,0.0001491,53.2187,52.9682,100.9533,259.1627,0.00051339,7.894e-05,0.0,0 STARLINK-5003,1 53905U 22119V   24136.17550304  .00007894  00000-0  51339-3 0  9990,2 53905  53.2187  52.9682 0001491 100.9533 259.1627 15.08847352 91238,6917.858,95.437,540.754,538.691,0.0
53905.0,STARLINK-5003,PAYLOAD,2024-05-15 21:41:57,15.08852042,0.0001233,53.2182,49.6943,90.6175,269.4958,-4.1471e-05,-9.48e-06,0.0,0 STARLINK-5003,1 53905U 22119V   24136.90413541 -.00000948  00000-0 -41471-4 0  9994,2 53905  53.2182  49.6943 0001233  90.6175 269.4958 15.08852042 91768,6917.844,95.437,540.562,538.856,0.0
53905.0,STARLINK-5003,PAYLOAD,2024-05-16 00:52:43,15.08859428,0.0001424,53.2182,49.1026,106.086,254.0289,4.9738e-05,5.04e-06,0.0,0 STARLINK-5003,1 53905U 22119V   24137.03661107  .00000504  00000-0  49738-4 0  9992,2 53905  53.2182  49.1026 0001424 106.0860 254.0289 15.08859428 91784,6917.821,95.436,540.671,538.701,0.0
53905.0,STARLINK-5003,PAYLOAD,2024-05-16 18:21:57,15.08847724,0.0001507,53.2182,45.8314,102.6626,257.4534,5.0212e-05,5.11e-06,0.0,0 STARLINK-5003,1 53905U 22119V   24137.76525284  .00000511  00000-0  50212-4 0  9994,2 53905  53.2182  45.8314 0001507 102.6626 257.4534 15.08847724 91473,6917.857,95.437,540.764,538.679,0.0
53905.0,STARLINK-5003,PAYLOAD,2024-05-17 13:26:37,15.08802047,0.0001558,53.218,42.2659,88.7305,271.3865,-0.00052075,-8.557e-05,0.0,0 STARLINK-5003,1 53905U 22119V   24138.56015391 -.00008557  00000-0 -52075-3 0  9994,2 53905  53.2180  42.2659 0001558  88.7305 271.3865 15.08802047 91592,6917.996,95.44,540.939,538.784,0.0
53905.0,STARLINK-5003,PAYLOAD,2024-05-17 21:23:32,15.08822747,0.0001636,53.2177,40.7787,100.3334,259.7843,-0.00033657,-5.638e-05,0.0,0 STARLINK-5003,1 53905U 22119V   24138.89134599 -.00005638  00000-0 -33657-3 0  9994,2 53905  53.2177  40.7787 0001636 100.3334 259.7843 15.08822747 91644,6917.933,95.439,540.93,538.666,0.0
53905.0,STARLINK-5003,PAYLOAD,2024-05-17 22:58:55,15.08828453,0.0001695,53.2175,40.4812,101.9703,258.148,-0.00023442,-4.016e-05,0.0,0 STARLINK-5003,1 53905U 22119V   24138.95758369 -.00004016  00000-0 -23442-3 0  9998,2 53905  53.2175  40.4812 0001695 101.9703 258.1480 15.08828453 92078,6917.916,95.438,540.953,538.608,0.0
53905.0,STARLINK-5003,PAYLOAD,2024-05-18 02:09:41,15.0883905,0.0001519,53.2179,39.8865,90.0984,270.0183,-5.4476e-05,-1.155e-05,0.0,0 STARLINK-5003,1 53905U 22119V   24139.09005934 -.00001155  00000-0 -54476-4 0  9990,2 53905  53.2179  39.8865 0001519  90.0984 270.0183 15.08839050 91679,6917.883,95.438,540.799,538.697,0.0
53905.0,STARLINK-5003,PAYLOAD,2024-05-18 10:06:36,15.08847044,0.000148,53.2181,38.3993,88.1809,271.9352,0.00010456,1.377e-05,0.0,0 STARLINK-5003,1 53905U 22119V   24139.42125628  .00001377  00000-0  10456-3 0  9993,2 53905  53.2181  38.3993 0001480  88.1809 271.9352 15.08847044 92142,6917.859,95.437,540.748,538.7,0.0
53905.0,STARLINK-5003,PAYLOAD,2024-05-18 21:14:17,15.08861523,0.0001215,53.2161,36.3171,75.2508,284.8619,0.00043787,6.692e-05,0.0,0 STARLINK-5003,1 53905U 22119V   24139.88492832  .00006692  00000-0  43787-3 0  9995,2 53905  53.2161  36.3171 0001215  75.2508 284.8619 15.08861523 91792,6917.815,95.436,540.52,538.839,0.0
53905.0,STARLINK-5003,PAYLOAD,2024-05-18 22:49:39,15.08905781,0.0001437,53.2166,36.0197,110.2277,249.887,0.0012594,0.00019848,0.0,0 STARLINK-5003,1 53905U 22119V   24139.95114959  .00019848  00000-0  12594-2 0  9992,2 53905  53.2166  36.0197 0001437 110.2277 249.8870 15.08905781 92225,6917.679,95.433,540.538,538.55,0.0
53905.0,STARLINK-5003,PAYLOAD,2024-05-19 03:35:50,15.08843035,0.0001672,53.2168,35.1279,103.0228,257.0951,-5.012e-05,-1.086e-05,0.0,0 STARLINK-5003,1 53905U 22119V   24140.14988947 -.00001086  00000-0 -50120-4 0  9997,2 53905  53.2168  35.1279 0001672 103.0228 257.0951 15.08843035 91835,6917.871,95.437,540.893,538.579,0.0
53905.0,STARLINK-5003,PAYLOAD,2024-05-19 21:05:07,15.08806394,0.0002476,53.2165,31.8546,123.9886,236.1342,2.1325e-05,5.1e-07,0.0,0 STARLINK-5003,1 53905U 22119V   24140.87855686  .00000051  00000-0  21325-4 0  9994,2 53905  53.2165  31.8546 0002476 123.9886 236.1342 15.08806394 91947,6917.983,95.44,541.561,538.135,0.0
53905.0,STARLINK-5003,PAYLOAD,2024-05-20 01:51:16,15.08823063,0.0001228,53.2176,30.9636,110.1139,249.9985,-2.5663e-05,-6.96e-06,0.0,0 STARLINK-5003,1 53905U 22119V   24141.07727181 -.00000696  00000-0 -25663-4 0  9991,2 53905  53.2176  30.9636 0001228 110.1139 249.9985 15.08823063 91972,6917.932,95.439,540.647,538.948,0.0
53905.0,STARLINK-5003,PAYLOAD,2024-05-20 20:55:53,15.08844052,0.0001283,53.2165,27.4025,74.1904,285.923,-2.6055e-05,-7.03e-06,0.0,0 STARLINK-5003,1 53905U 22119V   24141.87214413 -.00000703  00000-0 -26055-4 0  9993,2 53905  53.2165  27.4025 0001283  74.1904 285.9230 15.08844052 92091,6917.868,95.437,540.621,538.845,0.0
53905.0,STARLINK-5003,PAYLOAD,2024-05-21 00:06:38,15.08871295,0.0001208,53.2181,26.801,112.5625,247.5495,-4.0307e-05,-9.3e-06,0.0,0 STARLINK-5003,1 53905U 22119V   24142.00460936 -.00000930  00000-0 -40307-4 0  9990,2 53905  53.2181  26.8010 0001208 112.5625 247.5495 15.08871295 92119,6917.785,95.436,540.485,538.814,0.0
